start=new Date('2022-11-03T00:00:00.000Z').valueOf();
sats=[{"LAUNCH_DATE":"2019-11-11","TIME_SYSTEM":"UTC","TLE_LINE2":"2 44760  53.0553 316.6508 0002250  40.2188 319.8967 15.06390449163874","ARG_OF_PERICENTER":"40.2188","COUNTRY_CODE":"US","APOAPSIS":"548.801","OBJECT_TYPE":"PAYLOAD","SEMIMAJOR_AXIS":"6925.378","EPOCH":"2022-11-02T17:50:35.642976","OBJECT_ID":"2019-074AZ","MEAN_ANOMALY":"319.8967","OBJECT_NAME":"STARLINK-1055","NORAD_CAT_ID":"44760","MEAN_ELEMENT_THEORY":"SGP4","EPHEMERIS_TYPE":"0","PERIAPSIS":"545.685","RCS_SIZE":"LARGE","CENTER_NAME":"EARTH","REF_FRAME":"TEME","INCLINATION":"53.0553","MEAN_MOTION_DDOT":"0.0000000000000","CLASSIFICATION_TYPE":"U","FILE":"3643025","MEAN_MOTION_DOT":"-0.00000036","RA_OF_ASC_NODE":"316.6508","ELEMENT_SET_NO":"999","REV_AT_EPOCH":"16387","DECAY_DATE":null,"MEAN_MOTION":"15.06390449","PERIOD":"95.593","GP_ID":"216786414","TLE_LINE1":"1 44760U 19074AZ  22306.74346809 -.00000036  00000-0  16485-4 0  9994","BSTAR":"0.00001648500000","ECCENTRICITY":"0.00022500","SITE":"AFETR"},{"FILE":"3643025","ELEMENT_SET_NO":"999","REV_AT_EPOCH":"16387","MEAN_MOTION_DOT":"0.00000556","RA_OF_ASC_NODE":"316.6027","MEAN_MOTION":"15.06391790","PERIOD":"95.593","DECAY_DATE":null,"TLE_LINE1":"1 44761U 19074BA  22306.75452287  .00000556  00000-0  56278-4 0  9994","ECCENTRICITY":"0.00019990","BSTAR":"0.00005627800000","SITE":"AFETR","GP_ID":"216787664","COUNTRY_CODE":"US","APOAPSIS":"548.623","LAUNCH_DATE":"2019-11-11","TIME_SYSTEM":"UTC","ARG_OF_PERICENTER":"43.0238","TLE_LINE2":"2 44761  53.0546 316.6027 0001999  43.0238 317.0907 15.06391790163873","EPOCH":"2022-11-02T18:06:30.775968","OBJECT_ID":"2019-074BA","MEAN_ANOMALY":"317.0907","OBJECT_TYPE":"PAYLOAD","SEMIMAJOR_AXIS":"6925.374","MEAN_ELEMENT_THEORY":"SGP4","EPHEMERIS_TYPE":"0","RCS_SIZE":"LARGE","PERIAPSIS":"545.854","OBJECT_NAME":"STARLINK-1056","NORAD_CAT_ID":"44761","MEAN_MOTION_DDOT":"0.0000000000000","INCLINATION":"53.0546","CLASSIFICATION_TYPE":"U","CENTER_NAME":"EARTH","REF_FRAME":"TEME"},{"APOAPSIS":"548.592","COUNTRY_CODE":"US","LAUNCH_DATE":"2019-11-11","TIME_SYSTEM":"UTC","TLE_LINE2":"2 44762  53.0549 296.8879 0001937  54.6153 305.5017 15.06388016164138","ARG_OF_PERICENTER":"54.6153","EPOCH":"2022-11-02T16:33:37.861056","MEAN_ANOMALY":"305.5017","OBJECT_ID":"2019-074BB","OBJECT_TYPE":"PAYLOAD","SEMIMAJOR_AXIS":"6925.385","EPHEMERIS_TYPE":"0","MEAN_ELEMENT_THEORY":"SGP4","PERIAPSIS":"545.909","RCS_SIZE":"LARGE","OBJECT_NAME":"STARLINK-1057","NORAD_CAT_ID":"44762","CLASSIFICATION_TYPE":"U","MEAN_MOTION_DDOT":"0.0000000000000","INCLINATION":"53.0549","REF_FRAME":"TEME","CENTER_NAME":"EARTH","FILE":"3643025","ELEMENT_SET_NO":"999","REV_AT_EPOCH":"16413","RA_OF_ASC_NODE":"296.8879","MEAN_MOTION_DOT":"0.00000791","PERIOD":"95.593","MEAN_MOTION":"15.06388016","DECAY_DATE":null,"ECCENTRICITY":"0.00019370","BSTAR":"0.00007204600000","TLE_LINE1":"1 44762U 19074BB  22306.69002154  .00000791  00000-0  72046-4 0  9994","SITE":"AFETR","GP_ID":"216787415"},{"FILE":"3642416","ELEMENT_SET_NO":"999","REV_AT_EPOCH":"16380","MEAN_MOTION_DOT":"0.00002871","RA_OF_ASC_NODE":"318.5619","PERIOD":"95.592","MEAN_MOTION":"15.06396113","DECAY_DATE":null,"ECCENTRICITY":"0.00018260","BSTAR":"0.00021160000000","TLE_LINE1":"1 44763U 19074BC  22306.31125951  .00002871  00000-0  21160-3 0  9996","SITE":"AFETR","GP_ID":"216750555","APOAPSIS":"548.490","COUNTRY_CODE":"US","TIME_SYSTEM":"UTC","LAUNCH_DATE":"2019-11-11","TLE_LINE2":"2 44763  53.0562 318.5619 0001826  52.9563 307.1593 15.06396113163808","ARG_OF_PERICENTER":"52.9563","EPOCH":"2022-11-02T07:28:12.821664","MEAN_ANOMALY":"307.1593","OBJECT_ID":"2019-074BC","OBJECT_TYPE":"PAYLOAD","SEMIMAJOR_AXIS":"6925.360","EPHEMERIS_TYPE":"0","MEAN_ELEMENT_THEORY":"SGP4","RCS_SIZE":"LARGE","PERIAPSIS":"545.961","OBJECT_NAME":"STARLINK-1058","NORAD_CAT_ID":"44763","CLASSIFICATION_TYPE":"U","INCLINATION":"53.0562","MEAN_MOTION_DDOT":"0.0000000000000","REF_FRAME":"TEME","CENTER_NAME":"EARTH"},{"MEAN_MOTION_DDOT":"0.0000000000000","INCLINATION":"53.0556","CLASSIFICATION_TYPE":"U","CENTER_NAME":"EARTH","REF_FRAME":"TEME","MEAN_ELEMENT_THEORY":"SGP4","EPHEMERIS_TYPE":"0","PERIAPSIS":"532.803","RCS_SIZE":"LARGE","OBJECT_NAME":"STARLINK-1059","NORAD_CAT_ID":"44764","EPOCH":"2022-11-02T06:19:04.215936","OBJECT_ID":"2019-074BD","MEAN_ANOMALY":"272.4618","OBJECT_TYPE":"PAYLOAD","SEMIMAJOR_AXIS":"6913.573","COUNTRY_CODE":"US","APOAPSIS":"538.073","LAUNCH_DATE":"2019-11-11","TIME_SYSTEM":"UTC","TLE_LINE2":"2 44764  53.0556 297.1736 0003811  87.6809 272.4618 15.10250285164096","ARG_OF_PERICENTER":"87.6809","TLE_LINE1":"1 44764U 19074BD  22306.26324324  .00020480  00000-0  12517-2 0  9997","ECCENTRICITY":"0.00038110","BSTAR":"0.00125170000000","SITE":"AFETR","GP_ID":"216750798","MEAN_MOTION":"15.10250285","PERIOD":"95.348","DECAY_DATE":null,"ELEMENT_SET_NO":"999","REV_AT_EPOCH":"16409","MEAN_MOTION_DOT":"0.00020480","RA_OF_ASC_NODE":"297.1736","FILE":"3642416"},{"COUNTRY_CODE":"US","APOAPSIS":"548.747","TLE_LINE2":"2 44765  53.0560 296.8181 0002123  58.4906 301.6290 15.06379438164303","ARG_OF_PERICENTER":"58.4906","TIME_SYSTEM":"UTC","LAUNCH_DATE":"2019-11-11","OBJECT_ID":"2019-074BE","MEAN_ANOMALY":"301.6290","EPOCH":"2022-11-02T16:54:52.332768","SEMIMAJOR_AXIS":"6925.412","OBJECT_TYPE":"PAYLOAD","PERIAPSIS":"545.806","RCS_SIZE":"LARGE","MEAN_ELEMENT_THEORY":"SGP4","EPHEMERIS_TYPE":"0","NORAD_CAT_ID":"44765","OBJECT_NAME":"STARLINK-1060","MEAN_MOTION_DDOT":"0.0000000000000","INCLINATION":"53.0560","CLASSIFICATION_TYPE":"U","CENTER_NAME":"EARTH","REF_FRAME":"TEME","FILE":"3642743","REV_AT_EPOCH":"16430","ELEMENT_SET_NO":"999","RA_OF_ASC_NODE":"296.8181","MEAN_MOTION_DOT":"-0.00001702","MEAN_MOTION":"15.06379438","PERIOD":"95.593","DECAY_DATE":null,"SITE":"AFETR","TLE_LINE1":"1 44765U 19074BE  22306.70477237 -.00001702  00000-0 -95422-4 0  9995","ECCENTRICITY":"0.00021230","BSTAR":"-0.00009542200000","GP_ID":"216761548"},{"MEAN_MOTION_DOT":"0.00000201","RA_OF_ASC_NODE":"316.5321","ELEMENT_SET_NO":"999","REV_AT_EPOCH":"16387","FILE":"3643025","GP_ID":"216787915","BSTAR":"0.00003238300000","ECCENTRICITY":"0.00017250","TLE_LINE1":"1 44766U 19074BF  22306.76927107  .00000201  00000-0  32383-4 0  9996","SITE":"AFETR","DECAY_DATE":null,"PERIOD":"95.593","MEAN_MOTION":"15.06381715","OBJECT_TYPE":"PAYLOAD","SEMIMAJOR_AXIS":"6925.405","EPOCH":"2022-11-02T18:27:45.020448","MEAN_ANOMALY":"298.6909","OBJECT_ID":"2019-074BF","LAUNCH_DATE":"2019-11-11","TIME_SYSTEM":"UTC","TLE_LINE2":"2 44766  53.0531 316.5321 0001725  61.4253 298.6909 15.06381715163878","ARG_OF_PERICENTER":"61.4253","APOAPSIS":"548.464","COUNTRY_CODE":"US","REF_FRAME":"TEME","CENTER_NAME":"EARTH","CLASSIFICATION_TYPE":"U","MEAN_MOTION_DDOT":"0.0000000000000","INCLINATION":"53.0531","OBJECT_NAME":"STARLINK-1061","NORAD_CAT_ID":"44766","EPHEMERIS_TYPE":"0","MEAN_ELEMENT_THEORY":"SGP4","PERIAPSIS":"546.075","RCS_SIZE":"LARGE"},{"GP_ID":"216751055","ECCENTRICITY":"0.00023020","BSTAR":"0.00007273400000","TLE_LINE1":"1 44767U 19074BG  22306.42921097  .00000802  00000-0  72734-4 0  9993","SITE":"AFETR","DECAY_DATE":null,"PERIOD":"95.593","MEAN_MOTION":"15.06394057","RA_OF_ASC_NODE":"318.0498","MEAN_MOTION_DOT":"0.00000802","ELEMENT_SET_NO":"999","REV_AT_EPOCH":"16382","FILE":"3642416","REF_FRAME":"TEME","CENTER_NAME":"EARTH","CLASSIFICATION_TYPE":"U","MEAN_MOTION_DDOT":"0.0000000000000","INCLINATION":"53.0572","OBJECT_NAME":"STARLINK-1062","NORAD_CAT_ID":"44767","EPHEMERIS_TYPE":"0","MEAN_ELEMENT_THEORY":"SGP4","RCS_SIZE":"LARGE","PERIAPSIS":"545.638","OBJECT_TYPE":"PAYLOAD","SEMIMAJOR_AXIS":"6925.367","EPOCH":"2022-11-02T10:18:03.827808","MEAN_ANOMALY":"320.0829","OBJECT_ID":"2019-074BG","LAUNCH_DATE":"2019-11-11","TIME_SYSTEM":"UTC","ARG_OF_PERICENTER":"40.0329","TLE_LINE2":"2 44767  53.0572 318.0498 0002302  40.0329 320.0829 15.06394057163824","APOAPSIS":"548.826","COUNTRY_CODE":"US"},{"APOAPSIS":"548.731","COUNTRY_CODE":"US","TLE_LINE2":"2 44768  53.0552 317.9386 0002127  35.3041 324.8089 15.06385555163834","ARG_OF_PERICENTER":"35.3041","LAUNCH_DATE":"2019-11-11","TIME_SYSTEM":"UTC","MEAN_ANOMALY":"324.8089","OBJECT_ID":"2019-074BH","EPOCH":"2022-11-02T10:51:16.859808","SEMIMAJOR_AXIS":"6925.393","OBJECT_TYPE":"PAYLOAD","RCS_SIZE":"LARGE","PERIAPSIS":"545.785","EPHEMERIS_TYPE":"0","MEAN_ELEMENT_THEORY":"SGP4","NORAD_CAT_ID":"44768","OBJECT_NAME":"STARLINK-1063","CLASSIFICATION_TYPE":"U","MEAN_MOTION_DDOT":"0.0000000000000","INCLINATION":"53.0552","REF_FRAME":"TEME","CENTER_NAME":"EARTH","FILE":"3642416","REV_AT_EPOCH":"16383","ELEMENT_SET_NO":"999","MEAN_MOTION_DOT":"0.00002241","RA_OF_ASC_NODE":"317.9386","PERIOD":"95.593","MEAN_MOTION":"15.06385555","DECAY_DATE":null,"SITE":"AFETR","ECCENTRICITY":"0.00021270","BSTAR":"0.00016936000000","TLE_LINE1":"1 44768U 19074BH  22306.45227847  .00002241  00000-0  16936-3 0  9999","GP_ID":"216751298"},{"GP_ID":"216787665","ECCENTRICITY":"0.00050190","BSTAR":"0.00206500000000","TLE_LINE1":"1 44770U 19074BK  22306.64892834  .00049648  00000-0  20650-2 0  9996","SITE":"AFETR","DECAY_DATE":null,"PERIOD":"94.531","MEAN_MOTION":"15.23304602","MEAN_MOTION_DOT":"0.00049648","RA_OF_ASC_NODE":"289.0240","ELEMENT_SET_NO":"999","REV_AT_EPOCH":"16420","FILE":"3643025","REF_FRAME":"TEME","CENTER_NAME":"EARTH","CLASSIFICATION_TYPE":"U","MEAN_MOTION_DDOT":"0.0000000000000","INCLINATION":"52.9997","OBJECT_NAME":"STARLINK-1065","NORAD_CAT_ID":"44770","EPHEMERIS_TYPE":"0","MEAN_ELEMENT_THEORY":"SGP4","PERIAPSIS":"492.433","RCS_SIZE":"LARGE","OBJECT_TYPE":"PAYLOAD","SEMIMAJOR_AXIS":"6874.018","EPOCH":"2022-11-02T15:34:27.408576","MEAN_ANOMALY":"278.3156","OBJECT_ID":"2019-074BK","TIME_SYSTEM":"UTC","LAUNCH_DATE":"2019-11-11","TLE_LINE2":"2 44770  52.9997 289.0240 0005019  81.8409 278.3156 15.23304602164206","ARG_OF_PERICENTER":"81.8409","APOAPSIS":"499.333","COUNTRY_CODE":"US"}];
